UFO 10 (USA 146)        
1 25967U 99063A   26179.87104307 -.00000185  00000+0  00000+0 0  9994
2 25967   9.8442  27.1489 0001550  73.3036 107.0485  1.00268650 97461
ORBCOMM FM32            
1 25982U 99065C   26179.55193650  .00000633  00000+0  25844-3 0  9991
2 25982  45.0144 119.4449 0004329 102.3246 257.8087 14.37144819388721
XMM-NEWTON              
1 25989U 99066A   26181.31376484  .00000075  00000+0  00000+0 0  9997
2 25989  64.4187 282.8185 4670815  64.6474   0.0796  0.50127122 23075
TERRA                   
1 25994U 99068A   26179.94125439  .00000368  00000+0  83955-4 0  9993
2 25994  97.9451 229.0212 0002489 156.9544 305.3307 14.61111903411320
ASIASTAR                
1 26107U 00016A   26179.73136282 -.00000331  00000+0  00000+0 0  9996
2 26107   9.1553  58.0304 0004617  36.8164 190.2886  1.00271810 96039
IMAGE                   
1 26113U 00017A   26178.35421053 -.00000086  00000+0  00000+0 0  9991
2 26113  94.2374 315.5053 7424862 286.6524   9.3238  1.68666239161675
USA 149 (DSP 20)        
1 26356U 00024A   26179.70030687  .00000098  00000+0  00000+0 0  9999
2 26356  13.1787  11.7693 0001504 324.2689  27.7016  1.00280789 33028
TDRS 8                  
1 26388U 00034A   26179.91747889 -.00000194  00000+0  00000+0 0  9995
2 26388  12.7016  31.2214 0004679  24.8820 275.9542  1.00275445 95296
ISS (ZVEZDA)            
1 26400U 00037A   26179.67039743  .00005693  00000+0  10963-3 0  9990
2 26400  51.6320 243.2491 0004267 243.5322 116.5229 15.49468267571535
NAVSTAR 48 (USA 151)    
1 26407U 00040A   26179.27132633  .00000079  00000+0  00000+0 0  9999
2 26407  54.8502 214.7219 0120881 302.5644  64.3517  2.00557860190172
CLUSTER II-FM7 (SAMBA)  
1 26410U 00041A   26181.52661441  .00015728  00000+0  00000+0 0  9996
2 26410 149.8901  53.0517 9069081 270.4354 359.5654  0.44858661 20366
CLUSTER II-FM8 (TANGO)  
1 26464U 00045B   26177.44528680  .00007604  00000+0  00000+0 0  9996
2 26464 150.1217  53.5221 9068133 270.7042   2.5410  0.44425767 20352
NSS-11                  
1 26554U 00059A   26179.83916679  .00000034  00000+0  00000+0 0  9995
2 26554   2.1556  81.2627 0003138  12.3411 301.4273  1.00273180 41407
USA 153                 
1 26575U 00065A   26179.97345896 -.00000324  00000+0  00000+0 0  9990
2 26575  11.6441  35.3220 0003070  53.2857 313.2507  1.00267835 33053
AMC-6                   
1 26580U 00067A   26179.70628691  .00000099  00000+0  00000+0 0  9994
2 26580   0.1809  83.4280 0004016  24.5135 288.0776  1.00273417 94003
NAVSTAR 49 (USA 154)    
1 26605U 00071A   26179.61585969 -.00000046  00000+0  00000+0 0  9990
2 26605  55.6315  94.5030 0174135 266.8276 273.8450  2.00565072187748
ISS (DESTINY)           
1 26700U 01006B   26179.67039743  .00005693  00000+0  10963-3 0  9990
2 26700  51.6320 243.2491 0004267 243.5322 116.5229 15.49468267571583
ODIN                    
1 26702U 01007A   26179.63720620  .00214973  00000+0  11239-2 0  9999
2 26702  97.3796 221.3471 0006204 134.8757 225.3015 15.80233785391202
USA 157 (MILSTAR-2 2)   
1 26715U 01009A   26179.70325356  .00000112  00000+0  00000+0 0  9999
2 26715  11.5548  19.6916 0039599 178.1456 182.1128  1.00268229 33050
BSAT-2A                 
1 26720U 01011B   26179.70724024  .00000074  00000+0  00000+0 0  9990
2 26720  10.7568  47.3842 0002856 185.7326 168.0091  0.99176434 92084
OMNI-M1                 
1 26857U 01026A   26179.43930613  .00000008  00000+0  00000+0 0  9997
2 26857  44.8275 242.6703 0013901  55.5893 304.6092  3.92401949206017
INTELSAT 902 (IS-902)   
1 26900U 01039A   26179.59706030 -.00000278  00000+0  00000+0 0  9991
2 26900   6.1449  71.6447 0004206  26.0472 343.8308  1.00270785 90812
PCSAT (NO-44)           
1 26931U 01043C   26179.54409891  .00000092  00000+0  65165-4 0  9991
2 26931  67.0491 214.8978 0006039 265.3473  94.6939 14.31959587292079
PROBA-1                 
1 26958U 01049B   26179.95154687  .00003112  00000+0  20198-3 0  9993
2 26958  97.9599 188.8944 0056619  83.3726 277.3941 15.07548486345393
TIMED                   
1 26998U 01055B   26179.51574818  .00000904  00000+0  85601-4 0  9995
2 26998  74.0664 212.2084 0001686 320.2046  39.9015 14.95314068332512
MAROC-TUBSAT            
1 27004U 01056D   26179.92399993 -.00000023  00000+0  26912-4 0  9992
2 27004  99.8087 357.0050 0020578 112.1637  48.8926 13.70262957227795
COSMOS 2385             
1 27056U 01058B   26179.89399520 -.00000009  00000+0 -11135-3 0  9998
2 27056  82.5358 212.3611 0005753 195.5500 285.8717 12.60565549127252
COSMOS 2386             
1 27057U 01058C   26179.58943811  .00000035  00000+0  13699-3 0  9997
2 27057  82.5423 206.8673 0001613  86.3140 273.8135 12.61616692127944
USA 164 (MILSTAR-2 3)   
1 27168U 02001A   26179.94874226  .00000101  00000+0  00000+0 0  9994
2 27168  11.1930  21.8343 0099502   8.8197 246.8473  1.00271817 33074
INTELSAT 904 (IS-904)   
1 27380U 02007A   26179.51260638 -.00000220  00000+0  00000+0 0  9998
2 27380   6.9472  69.0501 0006497  12.3783 348.2351  1.00272689 51884
AQUA                    
1 27424U 02022A   26179.88667149  .00000734  00000+0  15563-3 0  9995
2 27424  98.4282 149.4036 0000724  68.5145 319.7656 14.62174961284982
