OBJECT_NAME,OBJECT_ID,EPOCH,MEAN_MOTION,ECCENTRICITY,INCLINATION,RA_OF_ASC_NODE,ARG_OF_PERICENTER,MEAN_ANOMALY,EPHEMERIS_TYPE,CLASSIFICATION_TYPE,NORAD_CAT_ID,ELEMENT_SET_NO,REV_AT_EPOCH,BSTAR,MEAN_MOTION_DOT,MEAN_MOTION_DDOT
UFO 10 (USA 146),1999-063A,2026-06-28T20:54:18.121248,1.00268650,.00015507,9.8442,27.1489,73.3036,107.0485,0,U,25967,999,9746,0,-.185E-5,0
ORBCOMM FM32,1999-065C,2026-06-28T13:14:47.313600,14.37144819,.00043298,45.0144,119.4449,102.3246,257.8087,0,U,25982,999,38872,.25843727E-3,.633E-5,0
XMM-NEWTON,1999-066A,2026-06-30T07:31:49.282176,0.50127122,.46708159,64.4187,282.8185,64.6474,0.0796,0,U,25989,999,2307,0,.75E-6,0
TERRA,1999-068A,2026-06-28T22:35:24.379296,14.61111903,.00024896,97.9451,229.0212,156.9544,305.3307,0,U,25994,999,41132,.83955317E-4,.368E-5,0
ASIASTAR,2000-016A,2026-06-28T17:33:09.747648,1.00271810,.00046178,9.1553,58.0304,36.8164,190.2886,0,U,26107,999,9603,0,-.331E-5,0
IMAGE,2000-017A,2026-06-27T08:30:03.789792,1.68666239,.74248625,94.2374,315.5053,286.6524,9.3238,0,U,26113,999,16167,0,-.86E-6,0
USA 149 (DSP 20),2000-024A,2026-06-28T16:48:26.513568,1.00280789,.00015041,13.1787,11.7693,324.2689,27.7016,0,U,26356,999,3302,0,.98E-6,0
TDRS 8,2000-034A,2026-06-28T22:01:10.176096,1.00275445,.00046791,12.7016,31.2214,24.8820,275.9542,0,U,26388,999,9529,0,-.194E-5,0
ISS (ZVEZDA),2000-037A,2026-06-28T16:05:22.337952,15.49468267,.00042679,51.6320,243.2491,243.5322,116.5229,0,U,26400,999,57153,.10963493E-3,.5693E-4,0
NAVSTAR 48 (USA 151),2000-040A,2026-06-28T06:30:42.594912,2.00557860,.0120881,54.8502,214.7219,302.5644,64.3517,0,U,26407,999,19017,0,.79E-6,0
CLUSTER II-FM7 (SAMBA),2000-041A,2026-06-30T12:38:19.485024,0.44858661,.90690818,149.8901,53.0517,270.4354,359.5654,0,U,26410,999,2036,0,.15728E-3,0
CLUSTER II-FM8 (TANGO),2000-045B,2026-06-26T10:41:12.779520,0.44425767,.90681332,150.1217,53.5221,270.7042,2.5410,0,U,26464,999,2035,0,.7604E-4,0
NSS-11,2000-059A,2026-06-28T20:08:24.010656,1.00273180,.00031386,2.1556,81.2627,12.3411,301.4273,0,U,26554,999,4140,0,.34E-6,0
USA 153,2000-065A,2026-06-28T23:21:46.854144,1.00267835,.00030707,11.6441,35.3220,53.2857,313.2507,0,U,26575,999,3305,0,-.324E-5,0
AMC-6,2000-067A,2026-06-28T16:57:03.189024,1.00273417,.00040163,0.1809,83.4280,24.5135,288.0776,0,U,26580,999,9400,0,.99E-6,0
NAVSTAR 49 (USA 154),2000-071A,2026-06-28T14:46:50.277216,2.00565072,.01741358,55.6315,94.5030,266.8276,273.8450,0,U,26605,999,18774,0,-.46E-6,0
ISS (DESTINY),2001-006B,2026-06-28T16:05:22.337952,15.49468267,.00042679,51.6320,243.2491,243.5322,116.5229,0,U,26700,999,57158,.10963493E-3,.5693E-4,0
ODIN,2001-007A,2026-06-28T15:17:34.615680,15.80233785,.00062043,97.3796,221.3471,134.8757,225.3015,0,U,26702,999,39120,.11239214E-2,.214973E-2,0
USA 157 (MILSTAR-2 2),2001-009A,2026-06-28T16:52:41.107584,1.00268229,.00395994,11.5548,19.6916,178.1456,182.1128,0,U,26715,999,3305,0,.112E-5,0
BSAT-2A,2001-011B,2026-06-28T16:58:25.556736,0.99176434,.00028563,10.7568,47.3842,185.7326,168.0091,0,U,26720,999,9208,0,.74E-6,0
OMNI-M1,2001-026A,2026-06-28T10:32:36.049632,3.92401949,.00139013,44.8275,242.6703,55.5893,304.6092,0,U,26857,999,20601,0,.8E-7,0
INTELSAT 902 (IS-902),2001-039A,2026-06-28T14:19:46.009920,1.00270785,.00042065,6.1449,71.6447,26.0472,343.8308,0,U,26900,999,9081,0,-.278E-5,0
PCSAT (NO-44),2001-043C,2026-06-28T13:03:30.145824,14.31959587,.00060398,67.0491,214.8978,265.3473,94.6939,0,U,26931,999,29207,.6516455E-4,.92E-6,0
PROBA-1,2001-049B,2026-06-28T22:50:13.649568,15.07548486,.00566195,97.9599,188.8944,83.3726,277.3941,0,U,26958,999,34539,.20197581E-3,.3112E-4,0
TIMED,2001-055B,2026-06-28T12:22:40.642752,14.95314068,.00016866,74.0664,212.2084,320.2046,39.9015,0,U,26998,999,33251,.85601015E-4,.904E-5,0
MAROC-TUBSAT,2001-056D,2026-06-28T22:10:33.593952,13.70262957,.0020578,99.8087,357.0050,112.1637,48.8926,0,U,27004,999,22779,.26911797E-4,-.23E-6,0
COSMOS 2385,2001-058B,2026-06-28T21:27:21.185280,12.60565549,.00057537,82.5358,212.3611,195.5500,285.8717,0,U,27056,999,12725,-.11134992E-3,-.9E-7,0
COSMOS 2386,2001-058C,2026-06-28T14:08:47.452704,12.61616692,.00016136,82.5423,206.8673,86.3140,273.8135,0,U,27057,999,12794,.13698554E-3,.35E-6,0
USA 164 (MILSTAR-2 3),2002-001A,2026-06-28T22:46:11.331264,1.00271817,.00995029,11.1930,21.8343,8.8197,246.8473,0,U,27168,999,3307,0,.101E-5,0
INTELSAT 904 (IS-904),2002-007A,2026-06-28T12:18:09.191232,1.00272689,.00064971,6.9472,69.0501,12.3783,348.2351,0,U,27380,999,5188,0,-.22E-5,0
AQUA,2002-022A,2026-06-28T21:16:48.416736,14.62174961,.00007241,98.4282,149.4036,68.5145,319.7656,0,U,27424,999,28498,.15562727E-3,.734E-5,0
